{
  "type": "FeatureCollection",
  "features": [
    {
      "type": "Feature",
      "properties": {
        "norad_id": 30640,
        "name": "FENGYUN 1C DEB",
        "group": "fengyun-1c-debris",
        "lat": 23.34648497862661,
        "lon": -126.2163308609302,
        "alt_km": 793.9456876846116,
        "timestamp": "2025-12-04T17:48:40.443492+00:00",
        "meta_object_name": "FENGYUN 1C DEB",
        "meta_object_id": "1999-025ANX",
        "meta_epoch": "2025-12-04T03:38:20.120928",
        "meta_mean_motion": 14.14556231,
        "meta_eccentricity": 0.00814158,
        "meta_inclination": 99.0586,
        "meta_ra_of_asc_node": 49.2363,
        "meta_arg_of_pericenter": 124.6257,
        "meta_mean_anomaly": 265.6329,
        "meta_ephemeris_type": 0,
        "meta_classification_type": "U",
        "meta_norad_cat_id": 30640,
        "meta_element_set_no": 999,
        "meta_rev_at_epoch": 96324,
        "meta_bstar": 0.0030786278,
        "meta_mean_motion_dot": 6.06e-05,
        "meta_mean_motion_ddot": 0,
        "tle_line1": "1 30640U 99025ANX 25338.15162177  .00006060  00000+0  30786-2 0  9996",
        "tle_line2": "2 30640  99.0586  49.2363 0081415 124.6257 265.6329 14.14556231963244"
      },
      "geometry": {
        "type": "Point",
        "coordinates": [
          -126.2163308609302,
          23.34648497862661
        ]
      }
    },
    {
      "type": "Feature",
      "properties": {
        "norad_id": 30641,
        "name": "FENGYUN 1C DEB",
        "group": "fengyun-1c-debris",
        "lat": 52.2035580837406,
        "lon": -99.48256364481439,
        "alt_km": 640.8378635694944,
        "timestamp": "2025-12-04T17:48:40.443502+00:00",
        "meta_object_name": "FENGYUN 1C DEB",
        "meta_object_id": "1999-025ANY",
        "meta_epoch": "2025-12-03T19:04:58.627200",
        "meta_mean_motion": 14.78845791,
        "meta_eccentricity": 0.01358606,
        "meta_inclination": 98.9415,
        "meta_ra_of_asc_node": 271.1781,
        "meta_arg_of_pericenter": 154.6514,
        "meta_mean_anomaly": 261.2956,
        "meta_ephemeris_type": 0,
        "meta_classification_type": "U",
        "meta_norad_cat_id": 30641,
        "meta_element_set_no": 999,
        "meta_rev_at_epoch": 400,
        "meta_bstar": 0.00071433134,
        "meta_mean_motion_dot": 6.075e-05,
        "meta_mean_motion_ddot": 0,
        "tle_line1": "1 30641U 99025ANY 25337.79512300  .00006075  00000+0  71433-3 0  9994",
        "tle_line2": "2 30641  98.9415 271.1781 0135860 154.6514 261.2956 14.78845791  4007"
      },
      "geometry": {
        "type": "Point",
        "coordinates": [
          -99.48256364481439,
          52.2035580837406
        ]
      }
    },
    {
      "type": "Feature",
      "properties": {
        "norad_id": 30646,
        "name": "FENGYUN 1C DEB",
        "group": "fengyun-1c-debris",
        "lat": -15.425834788335191,
        "lon": 2.000948246001305,
        "alt_km": 853.2284236822379,
        "timestamp": "2025-12-04T17:48:40.443512+00:00",
        "meta_object_name": "FENGYUN 1C DEB",
        "meta_object_id": "1999-025APD",
        "meta_epoch": "2025-12-04T00:50:58.053696",
        "meta_mean_motion": 14.09621031,
        "meta_eccentricity": 0.00486281,
        "meta_inclination": 98.6527,
        "meta_ra_of_asc_node": 358.9136,
        "meta_arg_of_pericenter": 56.6568,
        "meta_mean_anomaly": 303.9245,
        "meta_ephemeris_type": 0,
        "meta_classification_type": "U",
        "meta_norad_cat_id": 30646,
        "meta_element_set_no": 999,
        "meta_rev_at_epoch": 96482,
        "meta_bstar": 0.0010643286,
        "meta_mean_motion_dot": 1.843e-05,
        "meta_mean_motion_ddot": 0,
        "tle_line1": "1 30646U 99025APD 25338.03539414  .00001843  00000+0  10643-2 0  9995",
        "tle_line2": "2 30646  98.6527 358.9136 0048628  56.6568 303.9245 14.09621031964829"
      },
      "geometry": {
        "type": "Point",
        "coordinates": [
          2.000948246001305,
          -15.425834788335191
        ]
      }
    },
    {
      "type": "Feature",
      "properties": {
        "norad_id": 30647,
        "name": "FENGYUN 1C DEB",
        "group": "fengyun-1c-debris",
        "lat": -0.7567882003325739,
        "lon": 90.04706880029516,
        "alt_km": 689.3973153787074,
        "timestamp": "2025-12-04T17:48:40.443522+00:00",
        "meta_object_name": "FENGYUN 1C DEB",
        "meta_object_id": "1999-025APE",
        "meta_epoch": "2025-12-02T19:03:39.332736",
        "meta_mean_motion": 14.56138584,
        "meta_eccentricity": 0.00287565,
        "meta_inclination": 98.9885,
        "meta_ra_of_asc_node": 268.0697,
        "meta_arg_of_pericenter": 206.5245,
        "meta_mean_anomaly": 208.7008,
        "meta_ephemeris_type": 0,
        "meta_classification_type": "U",
        "meta_norad_cat_id": 30647,
        "meta_element_set_no": 999,
        "meta_rev_at_epoch": 97844,
        "meta_bstar": 0.0032090163,
        "meta_mean_motion_dot": 0.00014215,
        "meta_mean_motion_ddot": 0,
        "tle_line1": "1 30647U 99025APE 25336.79420524  .00014215  00000+0  32090-2 0  9995",
        "tle_line2": "2 30647  98.9885 268.0697 0028756 206.5245 208.7008 14.56138584978441"
      },
      "geometry": {
        "type": "Point",
        "coordinates": [
          90.04706880029516,
          -0.7567882003325739
        ]
      }
    },
    {
      "type": "Feature",
      "properties": {
        "norad_id": 30648,
        "name": "FENGYUN 1C DEB",
        "group": "fengyun-1c-debris",
        "lat": -28.360782239477075,
        "lon": -111.48901736432724,
        "alt_km": 724.8144152798241,
        "timestamp": "2025-12-04T17:48:40.443532+00:00",
        "meta_object_name": "FENGYUN 1C DEB",
        "meta_object_id": "1999-025APF",
        "meta_epoch": "2025-12-04T05:29:32.588160",
        "meta_mean_motion": 14.47895212,
        "meta_eccentricity": 0.00349614,
        "meta_inclination": 98.6435,
        "meta_ra_of_asc_node": 72.6964,
        "meta_arg_of_pericenter": 152.7552,
        "meta_mean_anomaly": 261.5844,
        "meta_ephemeris_type": 0,
        "meta_classification_type": "U",
        "meta_norad_cat_id": 30648,
        "meta_element_set_no": 999,
        "meta_rev_at_epoch": 97743,
        "meta_bstar": 0.0058313703,
        "meta_mean_motion_dot": 0.00021795,
        "meta_mean_motion_ddot": 0,
        "tle_line1": "1 30648U 99025APF 25338.22884940  .00021795  00000+0  58314-2 0  9990",
        "tle_line2": "2 30648  98.6435  72.6964 0034961 152.7552 261.5844 14.47895212977435"
      },
      "geometry": {
        "type": "Point",
        "coordinates": [
          -111.48901736432724,
          -28.360782239477075
        ]
      }
    },
    {
      "type": "Feature",
      "properties": {
        "norad_id": 30649,
        "name": "FENGYUN 1C DEB",
        "group": "fengyun-1c-debris",
        "lat": 7.678916791115173,
        "lon": -104.83895209607599,
        "alt_km": 761.3390266214737,
        "timestamp": "2025-12-04T17:48:40.443542+00:00",
        "meta_object_name": "FENGYUN 1C DEB",
        "meta_object_id": "1999-025APG",
        "meta_epoch": "2025-12-04T05:32:08.742336",
        "meta_mean_motion": 14.29395425,
        "meta_eccentricity": 0.00513723,
        "meta_inclination": 98.81,
        "meta_ra_of_asc_node": 73.4459,
        "meta_arg_of_pericenter": 195.384,
        "meta_mean_anomaly": 226.4513,
        "meta_ephemeris_type": 0,
        "meta_classification_type": "U",
        "meta_norad_cat_id": 30649,
        "meta_element_set_no": 999,
        "meta_rev_at_epoch": 96942,
        "meta_bstar": 0.0046976648,
        "meta_mean_motion_dot": 0.00012122,
        "meta_mean_motion_ddot": 0,
        "tle_line1": "1 30649U 99025APG 25338.23065674  .00012122  00000+0  46977-2 0  9993",
        "tle_line2": "2 30649  98.8100  73.4459 0051372 195.3840 226.4513 14.29395425969427"
      },
      "geometry": {
        "type": "Point",
        "coordinates": [
          -104.83895209607599,
          7.678916791115173
        ]
      }
    },
    {
      "type": "Feature",
      "properties": {
        "norad_id": 30650,
        "name": "FENGYUN 1C DEB",
        "group": "fengyun-1c-debris",
        "lat": -75.09172484139576,
        "lon": 161.57464067909655,
        "alt_km": 817.4323110187761,
        "timestamp": "2025-12-04T17:48:40.443553+00:00",
        "meta_object_name": "FENGYUN 1C DEB",
        "meta_object_id": "1999-025APH",
        "meta_epoch": "2025-12-04T01:27:04.626144",
        "meta_mean_motion": 14.13857857,
        "meta_eccentricity": 0.00720087,
        "meta_inclination": 99.2046,
        "meta_ra_of_asc_node": 18.3939,
        "meta_arg_of_pericenter": 213.6301,
        "meta_mean_anomaly": 176.2819,
        "meta_ephemeris_type": 0,
        "meta_classification_type": "U",
        "meta_norad_cat_id": 30650,
        "meta_element_set_no": 999,
        "meta_rev_at_epoch": 96176,
        "meta_bstar": 0.003070229,
        "meta_mean_motion_dot": 5.92e-05,
        "meta_mean_motion_ddot": 0,
        "tle_line1": "1 30650U 99025APH 25338.06047021  .00005920  00000+0  30702-2 0  9999",
        "tle_line2": "2 30650  99.2046  18.3939 0072008 213.6301 176.2819 14.13857857961764"
      },
      "geometry": {
        "type": "Point",
        "coordinates": [
          161.57464067909655,
          -75.09172484139576
        ]
      }
    }
  ]
}